NORAD_CAT_ID,OBJECT_NAME,OBJECT_TYPE,EPOCH,MEAN_MOTION,ECCENTRICITY,INCLINATION,RA_OF_ASC_NODE,ARG_OF_PERICENTER,MEAN_ANOMALY,BSTAR,MEAN_MOTION_DOT,MEAN_MOTION_DDOT,TLE_LINE0,TLE_LINE1,TLE_LINE2,SEMIMAJOR_AXIS,PERIOD,APOGEE,PERIGEE,DECAYED
54760.0,STARLINK-5220,PAYLOAD,2024-02-05 12:28:53,15.08838047,0.0001354,53.2164,230.3149,92.0693,268.0454,7.7176e-05,9.4e-06,0.0,0 STARLINK-5220,1 54760U 22175C   24036.52006614  .00000940  00000-0  77176-4 0  9993,2 54760  53.2164 230.3149 0001354  92.0693 268.0454 15.08838047 64709,6917.886,95.438,540.688,538.815,0.0
54760.0,STARLINK-5220,PAYLOAD,2024-02-05 20:25:49,15.0884109,0.0001339,53.2163,228.8283,90.7777,269.3368,8.5715e-05,1.077e-05,0.0,0 STARLINK-5220,1 54760U 22175C   24036.85126422  .00001077  00000-0  85715-4 0  9999,2 54760  53.2163 228.8283 0001339  90.7777 269.3368 15.08841090 64755,6917.877,95.437,540.668,538.816,0.0
54760.0,STARLINK-5220,PAYLOAD,2024-02-06 18:41:13,15.08795911,0.0001062,53.2165,224.6659,108.1176,251.9932,0.00071998,0.00011175,0.0,0 STARLINK-5220,1 54760U 22175C   24037.77862833  .00011175  00000-0  71998-3 0  9991,2 54760  53.2165 224.6659 0001062 108.1176 251.9932 15.08795911 62738,6918.015,95.44,540.615,539.145,0.0
54760.0,STARLINK-5220,PAYLOAD,2024-02-07 12:10:27,15.08839544,0.0001351,53.2159,221.3949,88.5609,271.5538,4.0416e-05,3.55e-06,0.0,0 STARLINK-5220,1 54760U 22175C   24038.50726540  .00000355  00000-0  40416-4 0  9997,2 54760  53.2159 221.3949 0001351  88.5609 271.5538 15.08839544 62843,6917.882,95.438,540.681,538.812,0.0
54760.0,STARLINK-5220,PAYLOAD,2024-02-07 18:32:00,15.08839227,0.0001275,53.2154,220.2047,90.0151,270.0987,4.0728e-05,3.6e-06,0.0,0 STARLINK-5220,1 54760U 22175C   24038.77222545  .00000360  00000-0  40728-4 0  9994,2 54760  53.2154 220.2047 0001275  90.0151 270.0987 15.08839227 65045,6917.883,95.438,540.63,538.866,0.0
54760.0,STARLINK-5220,PAYLOAD,2024-02-08 12:01:14,15.08839451,0.0001273,53.2154,216.9326,92.069,268.0448,6.0128e-05,6.69e-06,0.0,0 STARLINK-5220,1 54760U 22175C   24039.50086453  .00000669  00000-0  60128-4 0  9990,2 54760  53.2154 216.9326 0001273  92.0690 268.0448 15.08839451 65155,6917.882,95.438,540.628,538.866,0.0
54760.0,STARLINK-5220,PAYLOAD,2024-02-08 18:22:46,15.08843031,0.0001299,53.2157,215.7437,92.1749,267.9392,8.3402e-05,1.04e-05,0.0,0 STARLINK-5220,1 54760U 22175C   24039.76582160  .00001040  00000-0  83402-4 0  9998,2 54760  53.2157 215.7437 0001299  92.1749 267.9392 15.08843031 63032,6917.871,95.437,540.635,538.837,0.0
54760.0,STARLINK-5220,PAYLOAD,2024-02-09 11:52:01,15.08839863,0.0001312,53.216,212.473,91.8352,268.2791,7.6781e-05,9.34e-06,0.0,0 STARLINK-5220,1 54760U 22175C   24040.49446365  .00000934  00000-0  76781-4 0  9999,2 54760  53.2160 212.4730 0001312  91.8352 268.2791 15.08839863 65305,6917.881,95.438,540.653,538.838,0.0
54760.0,STARLINK-5220,PAYLOAD,2024-02-10 11:42:49,15.08836945,0.0001475,53.2174,208.0154,101.5397,258.5761,1.5188e-05,-4.6e-07,0.0,0 STARLINK-5220,1 54760U 22175C   24041.48806867 -.00000046  00000-0  15188-4 0  9995,2 54760  53.2174 208.0154 0001475 101.5397 258.5761 15.08836945 63292,6917.89,95.438,540.775,538.734,0.0
54760.0,STARLINK-5220,PAYLOAD,2024-02-10 16:28:58,15.08838324,0.0001454,53.2175,207.1235,97.5013,262.6144,2.2975e-05,7.8e-07,0.0,0 STARLINK-5220,1 54760U 22175C   24041.68678808  .00000078  00000-0  22975-4 0  9995,2 54760  53.2175 207.1235 0001454  97.5013 262.6144 15.08838324 65486,6917.886,95.438,540.756,538.745,0.0
54760.0,STARLINK-5220,PAYLOAD,2024-02-11 14:44:22,15.08838615,0.0001516,53.2182,202.962,100.6214,259.4949,3.7262e-05,3.05e-06,0.0,0 STARLINK-5220,1 54760U 22175C   24042.61414870  .00000305  00000-0  37262-4 0  9994,2 54760  53.2182 202.9620 0001516 100.6214 259.4949 15.08838615 65629,6917.885,95.438,540.798,538.701,0.0
54760.0,STARLINK-5220,PAYLOAD,2024-02-11 17:55:08,15.08841703,0.0001409,53.2177,202.3667,88.7428,271.3725,5.7558e-05,6.28e-06,0.0,0 STARLINK-5220,1 54760U 22175C   24042.74662665  .00000628  00000-0  57558-4 0  9993,2 54760  53.2177 202.3667 0001409  88.7428 271.3725 15.08841703 63481,6917.875,95.437,540.715,538.765,0.0
54760.0,STARLINK-5220,PAYLOAD,2024-02-12 14:35:09,15.08836144,0.0001287,53.2171,198.499,81.7719,278.3419,5.8155e-05,6.38e-06,0.0,0 STARLINK-5220,1 54760U 22175C   24043.60775245  .00000638  00000-0  58155-4 0  9993,2 54760  53.2171 198.4990 0001287  81.7719 278.3419 15.08836144 65773,6917.892,95.438,540.648,538.867,0.0
54760.0,STARLINK-5220,PAYLOAD,2024-02-12 19:21:18,15.08846382,0.0001325,53.2175,197.6043,90.6511,269.4633,0.0001348,1.858e-05,0.0,0 STARLINK-5220,1 54760U 22175C   24043.80646370  .00001858  00000-0  13480-3 0  9997,2 54760  53.2175 197.6043 0001325  90.6511 269.4633 15.08846382 63647,6917.861,95.437,540.642,538.809,0.0
54760.0,STARLINK-5220,PAYLOAD,2024-02-13 03:18:14,15.08834378,0.0001319,53.2169,196.116,85.6589,274.4553,5.3126e-05,5.58e-06,0.0,0 STARLINK-5220,1 54760U 22175C   24044.13767360  .00000558  00000-0  53126-4 0  9995,2 54760  53.2169 196.1160 0001319  85.6589 274.4553 15.08834378 63690,6917.898,95.438,540.675,538.85,0.0
54760.0,STARLINK-5220,PAYLOAD,2024-02-13 14:25:57,15.08838983,0.0001471,53.2167,194.038,83.8389,276.2771,3.0254e-05,1.94e-06,0.0,0 STARLINK-5220,1 54760U 22175C   24044.60135465  .00000194  00000-0  30254-4 0  9995,2 54760  53.2167 194.0380 0001471  83.8389 276.2771 15.08838983 65922,6917.883,95.438,540.766,538.731,0.0
54760.0,STARLINK-5220,PAYLOAD,2024-02-13 19:12:05,15.08844851,0.0001241,53.2149,193.1423,85.2583,274.855,6.662e-05,7.73e-06,0.0,0 STARLINK-5220,1 54760U 22175C   24044.80006881  .00000773  00000-0  66620-4 0  9995,2 54760  53.2149 193.1423 0001241  85.2583 274.8550 15.08844851 63790,6917.866,95.437,540.589,538.872,0.0
54760.0,STARLINK-5220,PAYLOAD,2024-02-14 03:09:02,15.08836046,0.0001069,53.2152,191.6536,99.6233,260.488,6.8226e-05,7.98e-06,0.0,0 STARLINK-5220,1 54760U 22175C   24045.13127368  .00000798  00000-0  68226-4 0  9997,2 54760  53.2152 191.6536 0001069  99.6233 260.4880 15.08836046 63841,6917.892,95.438,540.497,539.018,0.0
54760.0,STARLINK-5220,PAYLOAD,2024-02-14 14:16:43,15.08847493,0.0001482,53.2151,189.5737,86.3896,273.7266,5.6689e-05,6.15e-06,0.0,0 STARLINK-5220,1 54760U 22175C   24045.59494821  .00000615  00000-0  56689-4 0  9996,2 54760  53.2151 189.5737 0001482  86.3896 273.7266 15.08847493 66077,6917.857,95.437,540.748,538.697,0.0
54760.0,STARLINK-5220,PAYLOAD,2024-02-14 15:52:06,15.08844499,0.0001078,53.2171,189.2762,93.3284,266.7831,1.6196e-05,-3e-07,0.0,0 STARLINK-5220,1 54760U 22175C   24045.66119036 -.00000030  00000-0  16196-4 0  9997,2 54760  53.2171 189.2762 0001078  93.3284 266.7831 15.08844499 66088,6917.867,95.437,540.477,538.986,0.0
54760.0,STARLINK-5220,PAYLOAD,2024-02-15 02:59:48,15.08846921,0.000115,53.2149,187.1976,84.2179,275.8945,2.5326e-05,1.15e-06,0.0,0 STARLINK-5220,1 54760U 22175C   24046.12486774  .00000115  00000-0  25326-4 0  9993,2 54760  53.2149 187.1976 0001150  84.2179 275.8945 15.08846921 63996,6917.859,95.437,540.52,538.929,0.0
54760.0,STARLINK-5220,PAYLOAD,2024-02-15 09:21:21,15.08840981,0.0002139,53.2151,186.006,92.2787,267.845,0.00012198,1.654e-05,0.0,0 STARLINK-5220,1 54760U 22175C   24046.38983346  .00001654  00000-0  12198-3 0  9999,2 54760  53.2151 186.0060 0002139  92.2787 267.8450 15.08840981 64031,6917.877,95.437,541.222,538.263,0.0
54760.0,STARLINK-5220,PAYLOAD,2024-02-15 14:07:31,15.08833455,0.0001471,53.2182,185.1144,102.1042,258.0115,5.4158e-05,5.74e-06,0.0,0 STARLINK-5220,1 54760U 22175C   24046.58855864  .00000574  00000-0  54158-4 0  9997,2 54760  53.2182 185.1144 0001471 102.1042 258.0115 15.08833455 66222,6917.9,95.438,540.783,538.748,0.0
54760.0,STARLINK-5220,PAYLOAD,2024-02-15 15:42:54,15.08836023,0.0001491,53.2187,184.8181,96.0219,264.0943,-9.3235e-06,-4.36e-06,0.0,0 STARLINK-5220,1 54760U 22175C   24046.65479977 -.00000436  00000-0 -93235-5 0  9991,2 54760  53.2187 184.8181 0001491  96.0219 264.0943 15.08836023 64074,6917.893,95.438,540.789,538.726,0.0
54760.0,STARLINK-5220,PAYLOAD,2024-02-16 12:22:54,15.08845408,0.0001551,53.2173,180.9534,85.3616,274.7553,9.3207e-05,1.196e-05,0.0,0 STARLINK-5220,1 54760U 22175C   24047.51591230  .00001196  00000-0  93207-4 0  9994,2 54760  53.2173 180.9534 0001551  85.3616 274.7553 15.08845408 64204,6917.864,95.437,540.802,538.656,0.0
54760.0,STARLINK-5220,PAYLOAD,2024-02-16 13:58:17,15.08846213,0.0001625,53.2175,180.6562,85.1152,275.0025,9.6096e-05,1.242e-05,0.0,0 STARLINK-5220,1 54760U 22175C   24047.58215174  .00001242  00000-0  96096-4 0  9992,2 54760  53.2175 180.6562 0001625  85.1152 275.0025 15.08846213 66372,6917.861,95.437,540.851,538.602,0.0
54760.0,STARLINK-5220,PAYLOAD,2024-02-16 15:33:40,15.0884873,0.0001334,53.2171,180.3585,87.6278,272.4867,0.00015164,2.127e-05,0.0,0 STARLINK-5220,1 54760U 22175C   24047.64838828  .00002127  00000-0  15164-3 0  9995,2 54760  53.2171 180.3585 0001334  87.6278 272.4867 15.08848730 66385,6917.854,95.437,540.642,538.796,0.0
54760.0,STARLINK-5220,PAYLOAD,2024-02-17 12:13:42,15.08833024,0.000116,53.2169,176.4934,83.2831,276.8293,0.00013343,1.836e-05,0.0,0 STARLINK-5220,1 54760U 22175C   24048.50952208  .00001836  00000-0  13343-3 0  9993,2 54760  53.2169 176.4934 0001160  83.2831 276.8293 15.08833024 64356,6917.902,95.438,540.569,538.964,0.0
54760.0,STARLINK-5220,PAYLOAD,2024-02-17 15:24:28,15.08839579,0.0001401,53.2175,175.8985,98.6257,261.4894,0.00018477,2.654e-05,0.0,0 STARLINK-5220,1 54760U 22175C   24048.64199797  .00002654  00000-0  18477-3 0  9996,2 54760  53.2175 175.8985 0001401  98.6257 261.4894 15.08839579 66532,6917.882,95.438,540.716,538.777,0.0
54760.0,STARLINK-5220,PAYLOAD,2024-02-18 00:56:47,15.08843048,0.0001414,53.2166,174.1156,97.3995,262.7158,9.7652e-05,1.267e-05,0.0,0 STARLINK-5220,1 54760U 22175C   24049.03943645  .00001267  00000-0  97652-4 0  9991,2 54760  53.2166 174.1156 0001414  97.3995 262.7158 15.08843048 64433,6917.871,95.437,540.714,538.758,0.0
